{"type": "FeatureCollection", "features": [ {"type": "Feature", "properties": {"norad_id": 31091, "name": "FENGYUN 1C DEB", "group": "fengyun-1c-debris", "lat": -70.64961565555568, "lon": 1.6085654935058264, "alt_km": 854.5012759620058, "timestamp": "2025-12-23T16:57:12.633220+00:00", "meta": {"OBJECT_NAME": "FENGYUN 1C DEB", "OBJECT_ID": "1999-025BGM", "EPOCH": "2025-12-22T16:28:13.100736", "MEAN_MOTION": 13.54158753, "ECCENTRICITY": 0.02902586, "INCLINATION": 99.2259, "RA_OF_ASC_NODE": 333.0878, "ARG_OF_PERICENTER": 303.7803, "MEAN_ANOMALY": 53.5998, "EPHEMERIS_TYPE": 0, "CLASSIFICATION_TYPE": "U", "NORAD_CAT_ID": 31091, "ELEMENT_SET_NO": 999, "REV_AT_EPOCH": 61774, "BSTAR": 0.00060623551, "MEAN_MOTION_DOT": 4.96e-06, "MEAN_MOTION_DDOT": 0}, "tle": {"line1": "1 31091U 99025BGM 25356.68626274  .00000496  00000+0  60624-3 0  9990", "line2": "2 31091  99.2259 333.0878 0290258 303.7803  53.5998 13.54158753617740"}}, "geometry": {"type": "Point", "coordinates": [1.6085654935058264, -70.64961565555568]}}, {"type": "Feature", "properties": {"norad_id": 31092, "name": "FENGYUN 1C DEB", "group": "fengyun-1c-debris", "lat": -12.30827274934587, "lon": 115.39876183718016, "alt_km": 1213.253347516369, "timestamp": "2025-12-23T16:57:12.633233+00:00", "meta": {"OBJECT_NAME": "FENGYUN 1C DEB", "OBJECT_ID": "1999-025BGN", "EPOCH": "2025-12-21T18:39:08.339040", "MEAN_MOTION": 13.46549924, "ECCENTRICITY": 0.03272724, "INCLINATION": 99.7204, "RA_OF_ASC_NODE": 111.3813, "ARG_OF_PERICENTER": 114.5013, "MEAN_ANOMALY": 249.0613, "EPHEMERIS_TYPE": 0, "CLASSIFICATION_TYPE": "U", "NORAD_CAT_ID": 31092, "ELEMENT_SET_NO": 999, "REV_AT_EPOCH": 92003, "BSTAR": 0.0010558977, "MEAN_MOTION_DOT": 8.4e-06, "MEAN_MOTION_DDOT": 0}, "tle": {"line1": "1 31092U 99025BGN 25355.77717985  .00000840  00000+0  10559-2 0  9994", "line2": "2 31092  99.7204 111.3813 0327272 114.5013 249.0613 13.46549924920030"}}, "geometry": {"type": "Point", "coordinates": [115.39876183718016, -12.30827274934587]}}, {"type": "Feature", "properties": {"norad_id": 31093, "name": "FENGYUN 1C DEB", "group": "fengyun-1c-debris", "lat": 48.28791073968667, "lon": -174.0415862986861, "alt_km": 1080.3766120738965, "timestamp": "2025-12-23T16:57:12.633243+00:00", "meta": {"OBJECT_NAME": "FENGYUN 1C DEB", "OBJECT_ID": "1999-025BGP", "EPOCH": "2025-12-20T19:08:05.890560", "MEAN_MOTION": 13.80639482, "ECCENTRICITY": 0.02083586, "INCLINATION": 98.5945, "RA_OF_ASC_NODE": 193.0786, "ARG_OF_PERICENTER": 201.2976, "MEAN_ANOMALY": 157.9411, "EPHEMERIS_TYPE": 0, "CLASSIFICATION_TYPE": "U", "NORAD_CAT_ID": 31093, "ELEMENT_SET_NO": 999, "REV_AT_EPOCH": 94618, "BSTAR": 0.00028681115, "MEAN_MOTION_DOT": 3.16e-06, "MEAN_MOTION_DDOT": 0}, "tle": {"line1": "1 31093U 99025BGP 25354.79729040  .00000316  00000+0  28681-3 0  9995", "line2": "2 31093  98.5945 193.0786 0208358 201.2976 157.9411 13.80639482946185"}}, "geometry": {"type": "Point", "coordinates": [-174.0415862986861, 48.28791073968667]}}, {"type": "Feature", "properties": {"norad_id": 31094, "name": "FENGYUN 1C DEB", "group": "fengyun-1c-debris", "lat": -59.780167164819936, "lon": -119.22195613190726, "alt_km": 876.1613792603366, "timestamp": "2025-12-23T16:57:12.633253+00:00", "meta": {"OBJECT_NAME": "FENGYUN 1C DEB", "OBJECT_ID": "1999-025BGQ", "EPOCH": "2025-12-20T20:44:00.681792", "MEAN_MOTION": 14.02080864, "ECCENTRICITY": 0.01064913, "INCLINATION": 98.8564, "RA_OF_ASC_NODE": 222.4906, "ARG_OF_PERICENTER": 24.5174, "MEAN_ANOMALY": 336.1004, "EPHEMERIS_TYPE": 0, "CLASSIFICATION_TYPE": "U", "NORAD_CAT_ID": 31094, "ELEMENT_SET_NO": 999, "REV_AT_EPOCH": 95733, "BSTAR": 0.0014539874, "MEAN_MOTION_DOT": 2.291e-05, "MEAN_MOTION_DDOT": 0}, "tle": {"line1": "1 31094U 99025BGQ 25354.86389678  .00002291  00000+0  14540-2 0  9995", "line2": "2 31094  98.8564 222.4906 0106491  24.5174 336.1004 14.02080864957335"}}, "geometry": {"type": "Point", "coordinates": [-119.22195613190726, -59.780167164819936]}}, {"type": "Feature", "properties": {"norad_id": 31095, "name": "FENGYUN 1C DEB", "group": "fengyun-1c-debris", "lat": -54.78517990444359, "lon": -54.34960317594222, "alt_km": 1096.2819887728738, "timestamp": "2025-12-23T16:57:12.633263+00:00", "meta": {"OBJECT_NAME": "FENGYUN 1C DEB", "OBJECT_ID": "1999-025BGR", "EPOCH": "2025-12-23T02:55:17.574816", "MEAN_MOTION": 13.06670905, "ECCENTRICITY": 0.05001329, "INCLINATION": 98.5625, "RA_OF_ASC_NODE": 137.5065, "ARG_OF_PERICENTER": 167.0307, "MEAN_ANOMALY": 194.4236, "EPHEMERIS_TYPE": 0, "CLASSIFICATION_TYPE": "U", "NORAD_CAT_ID": 31095, "ELEMENT_SET_NO": 999, "REV_AT_EPOCH": 89583, "BSTAR": -0.0003736131, "MEAN_MOTION_DOT": -2.57e-06, "MEAN_MOTION_DDOT": 0}, "tle": {"line1": "1 31095U 99025BGR 25357.12173119 -.00000257  00000+0 -37361-3 0  9998", "line2": "2 31095  98.5625 137.5065 0500132 167.0307 194.4236 13.06670905895836"}}, "geometry": {"type": "Point", "coordinates": [-54.34960317594222, -54.78517990444359]}}, {"type": "Feature", "properties": {"norad_id": 31097, "name": "FENGYUN 1C DEB", "group": "fengyun-1c-debris", "lat": -41.727475837928175, "lon": 128.98747865174965, "alt_km": 739.2387161394145, "timestamp": "2025-12-23T16:57:12.633273+00:00", "meta": {"OBJECT_NAME": "FENGYUN 1C DEB", "OBJECT_ID": "1999-025BGT", "EPOCH": "2025-12-23T03:01:27.043680", "MEAN_MOTION": 14.47174725, "ECCENTRICITY": 0.0015772, "INCLINATION": 98.8603, "RA_OF_ASC_NODE": 120.3837, "ARG_OF_PERICENTER": 240.5425, "MEAN_ANOMALY": 295.0259, "EPHEMERIS_TYPE": 0, "CLASSIFICATION_TYPE": "U", "NORAD_CAT_ID": 31097, "ELEMENT_SET_NO": 999, "REV_AT_EPOCH": 97188, "BSTAR": 0.0030135259, "MEAN_MOTION_DOT": 0.00010986, "MEAN_MOTION_DDOT": 0}, "tle": {"line1": "1 31097U 99025BGT 25357.12600745  .00010986  00000+0  30135-2 0  9999", "line2": "2 31097  98.8603 120.3837 0015772 240.5425 295.0259 14.47174725971881"}}, "geometry": {"type": "Point", "coordinates": [128.98747865174965, -41.727475837928175]}}, {"type": "Feature", "properties": {"norad_id": 31098, "name": "FENGYUN 1C DEB", "group": "fengyun-1c-debris", "lat": 5.040948732622237, "lon": 115.47289001914014, "alt_km": 731.1765259765034, "timestamp": "2025-12-23T16:57:12.633283+00:00", "meta": {"OBJECT_NAME": "FENGYUN 1C DEB", "OBJECT_ID": "1999-025BGU", "EPOCH": "2025-12-22T07:50:50.417088", "MEAN_MOTION": 14.51731447, "ECCENTRICITY": 0.00154067, "INCLINATION": 98.8705, "RA_OF_ASC_NODE": 114.8068, "ARG_OF_PERICENTER": 223.6453, "MEAN_ANOMALY": 136.3523, "EPHEMERIS_TYPE": 0, "CLASSIFICATION_TYPE": "U", "NORAD_CAT_ID": 31098, "ELEMENT_SET_NO": 999, "REV_AT_EPOCH": 97096, "BSTAR": 0.0034841964, "MEAN_MOTION_DOT": 0.00013994, "MEAN_MOTION_DDOT": 0}, "tle": {"line1": "1 31098U 99025BGU 25356.32697242  .00013994  00000+0  34842-2 0  9990", "line2": "2 31098  98.8705 114.8068 0015406 223.6453 136.3523 14.51731447970960"}}, "geometry": {"type": "Point", "coordinates": [115.47289001914014, 5.040948732622237]}}, {"type": "Feature", "properties": {"norad_id": 31099, "name": "FENGYUN 1C DEB", "group": "fengyun-1c-debris", "lat": -22.58912677542596, "lon": -105.80430106632815, "alt_km": 802.1475931798368, "timestamp": "2025-12-23T16:57:12.633295+00:00", "meta": {"OBJECT_NAME": "FENGYUN 1C DEB", "OBJECT_ID": "1999-025BGV", "EPOCH": "2025-12-23T04:19:41.448576", "MEAN_MOTION": 14.27936288, "ECCENTRICITY": 0.00624449, "INCLINATION": 98.938, "RA_OF_ASC_NODE": 249.9035, "ARG_OF_PERICENTER": 250.7334, "MEAN_ANOMALY": 263.0811, "EPHEMERIS_TYPE": 0, "CLASSIFICATION_TYPE": "U", "NORAD_CAT_ID": 31099, "ELEMENT_SET_NO": 999, "REV_AT_EPOCH": 97620, "BSTAR": 0.00026134267, "MEAN_MOTION_DOT": 6.14e-06, "MEAN_MOTION_DDOT": 0}, "tle": {"line1": "1 31099U 99025BGV 25357.18034084  .00000614  00000+0  26134-3 0  9996", "line2": "2 31099  98.9380 249.9035 0062444 250.7334 263.0811 14.27936288976202"}}, "geometry": {"type": "Point", "coordinates": [-105.80430106632815, -22.58912677542596]}}, {"type": "Feature", "properties": {"norad_id": 31146, "name": "FENGYUN 1C DEB", "group": "fengyun-1c-debris", "lat": -9.72550258217608, "lon": 107.29631357332428, "alt_km": 712.3224153500769, "timestamp": "2025-12-23T16:57:12.633306+00:00", "meta": {"OBJECT_NAME": "FENGYUN 1C DEB", "OBJECT_ID": "1999-025BGY", "EPOCH": "2025-12-22T01:23:58.389216", "MEAN_MOTION": 14.27722679, "ECCENTRICITY": 0.02130038, "INCLINATION": 99.0427, "RA_OF_ASC_NODE": 287.1541, "ARG_OF_PERICENTER": 140.0787, "MEAN_ANOMALY": 221.6278, "EPHEMERIS_TYPE": 0, "CLASSIFICATION_TYPE": "U", "NORAD_CAT_ID": 31146, "ELEMENT_SET_NO": 999, "REV_AT_EPOCH": 96898, "BSTAR": 0.00028942379, "MEAN_MOTION_DOT": 8.58e-06, "MEAN_MOTION_DDOT": 0}, "tle": {"line1": "1 31146U 99025BGY 25356.05831469  .00000858  00000+0  28942-3 0  9995", "line2": "2 31146  99.0427 287.1541 0213003 140.0787 221.6278 14.27722679968987"}}, "geometry": {"type": "Point", "coordinates": [107.29631357332428, -9.72550258217608]}}, {"type": "Feature", "properties": {"norad_id": 31148, "name": "FENGYUN 1C DEB", "group": "fengyun-1c-debris", "lat": -70.8079483960128, "lon": 37.079773333678176, "alt_km": 809.8474481443436, "timestamp": "2025-12-23T16:57:12.633318+00:00", "meta": {"OBJECT_NAME": "FENGYUN 1C DEB", "OBJECT_ID": "1999-025BHA", "EPOCH": "2025-12-19T10:17:53.585088", "MEAN_MOTION": 14.43396116, "ECCENTRICITY": 0.0136538, "INCLINATION": 98.8661, "RA_OF_ASC_NODE": 239.2709, "ARG_OF_PERICENTER": 30.9307, "MEAN_ANOMALY": 329.9834, "EPHEMERIS_TYPE": 0, "CLASSIFICATION_TYPE": "U", "NORAD_CAT_ID": 31148, "ELEMENT_SET_NO": 999, "REV_AT_EPOCH": 97627, "BSTAR": 0.00061013, "MEAN_MOTION_DOT": 2.253e-05, "MEAN_MOTION_DDOT": 0}, "tle": {"line1": "1 31148U 99025BHA 25353.42909242  .00002253  00000+0  61013-3 0  9997", "line2": "2 31148  98.8661 239.2709 0136538  30.9307 329.9834 14.43396116976274"}}, "geometry": {"type": "Point", "coordinates": [37.079773333678176, -70.8079483960128]}}]}